[{"OBJECT_NAME":"ASTRA 1N","OBJECT_ID":"2011-041A","EPOCH":"2026-02-01T21:17:38.584896","MEAN_MOTION":1.00272478,"ECCENTRICITY":0.00028685,"INCLINATION":0.0616,"RA_OF_ASC_NODE":344.1724,"ARG_OF_PERICENTER":11.7676,"MEAN_ANOMALY":114.7239,"EPHEMERIS_TYPE":0,"CLASSIFICATION_TYPE":"U","NORAD_CAT_ID":37775,"ELEMENT_SET_NO":999,"REV_AT_EPOCH":4317,"BSTAR":0,"MEAN_MOTION_DOT":1.1e-6,"MEAN_MOTION_DDOT":0},{"OBJECT_NAME":"SES-2","OBJECT_ID":"2011-049A","EPOCH":"2026-02-01T21:37:56.627904","MEAN_MOTION":1.00270967,"ECCENTRICITY":0.00030406,"INCLINATION":0.0167,"RA_OF_ASC_NODE":59.1955,"ARG_OF_PERICENTER":251.702,"MEAN_ANOMALY":58.6603,"EPHEMERIS_TYPE":0,"CLASSIFICATION_TYPE":"U","NORAD_CAT_ID":37809,"ELEMENT_SET_NO":999,"REV_AT_EPOCH":5260,"BSTAR":0,"MEAN_MOTION_DOT":-2.06e-6,"MEAN_MOTION_DDOT":0},{"OBJECT_NAME":"QUETZSAT 1","OBJECT_ID":"2011-054A","EPOCH":"2026-02-01T21:40:41.365056","MEAN_MOTION":1.0027137,"ECCENTRICITY":0.00032422,"INCLINATION":0.0126,"RA_OF_ASC_NODE":19.8678,"ARG_OF_PERICENTER":299.8838,"MEAN_ANOMALY":60.4933,"EPHEMERIS_TYPE":0,"CLASSIFICATION_TYPE":"U","NORAD_CAT_ID":37826,"ELEMENT_SET_NO":999,"REV_AT_EPOCH":4851,"BSTAR":0,"MEAN_MOTION_DOT":-2.51e-6,"MEAN_MOTION_DDOT":0},{"OBJECT_NAME":"SES-4","OBJECT_ID":"2012-007A","EPOCH":"2026-02-01T21:56:24.858240","MEAN_MOTION":1.00263834,"ECCENTRICITY":0.00023249,"INCLINATION":0.0266,"RA_OF_ASC_NODE":43.6783,"ARG_OF_PERICENTER":278.9425,"MEAN_ANOMALY":116.5776,"EPHEMERIS_TYPE":0,"CLASSIFICATION_TYPE":"U","NORAD_CAT_ID":38087,"ELEMENT_SET_NO":999,"REV_AT_EPOCH":5086,"BSTAR":0,"MEAN_MOTION_DOT":-1.79e-6,"MEAN_MOTION_DDOT":0},{"OBJECT_NAME":"SES-5","OBJECT_ID":"2012-036A","EPOCH":"2026-02-01T21:49:38.589888","MEAN_MOTION":1.00272947,"ECCENTRICITY":0.00022884,"INCLINATION":0.0603,"RA_OF_ASC_NODE":293.3832,"ARG_OF_PERICENTER":13.7853,"MEAN_ANOMALY":157.3003,"EPHEMERIS_TYPE":0,"CLASSIFICATION_TYPE":"U","NORAD_CAT_ID":38652,"ELEMENT_SET_NO":999,"REV_AT_EPOCH":4310,"BSTAR":0,"MEAN_MOTION_DOT":2.4e-7,"MEAN_MOTION_DDOT":0},{"OBJECT_NAME":"ASTRA 2F","OBJECT_ID":"2012-051A","EPOCH":"2026-02-01T22:10:45.981984","MEAN_MOTION":1.00272229,"ECCENTRICITY":0.00032886,"INCLINATION":0.075,"RA_OF_ASC_NODE":258.3095,"ARG_OF_PERICENTER":8.2431,"MEAN_ANOMALY":226.4058,"EPHEMERIS_TYPE":0,"CLASSIFICATION_TYPE":"U","NORAD_CAT_ID":38778,"ELEMENT_SET_NO":999,"REV_AT_EPOCH":3978,"BSTAR":0,"MEAN_MOTION_DOT":1.4e-6,"MEAN_MOTION_DDOT":0},{"OBJECT_NAME":"SES-6","OBJECT_ID":"2013-026A","EPOCH":"2026-02-01T21:51:10.359648","MEAN_MOTION":1.00267454,"ECCENTRICITY":0.00025232,"INCLINATION":0.016,"RA_OF_ASC_NODE":325.7858,"ARG_OF_PERICENTER":351.0092,"MEAN_ANOMALY":102.6126,"EPHEMERIS_TYPE":0,"CLASSIFICATION_TYPE":"U","NORAD_CAT_ID":39172,"ELEMENT_SET_NO":999,"REV_AT_EPOCH":4636,"BSTAR":0,"MEAN_MOTION_DOT":0,"MEAN_MOTION_DDOT":0},{"OBJECT_NAME":"O3B FM5","OBJECT_ID":"2013-031A","EPOCH":"2026-02-01T17:08:34.029600","MEAN_MOTION":5.00116407,"ECCENTRICITY":0.00034463,"INCLINATION":0.0906,"RA_OF_ASC_NODE":23.0753,"ARG_OF_PERICENTER":283.4451,"MEAN_ANOMALY":53.4404,"EPHEMERIS_TYPE":0,"CLASSIFICATION_TYPE":"U","NORAD_CAT_ID":39188,"ELEMENT_SET_NO":999,"REV_AT_EPOCH":23026,"BSTAR":0,"MEAN_MOTION_DOT":-2.5e-7,"MEAN_MOTION_DDOT":0},{"OBJECT_NAME":"O3B FM4","OBJECT_ID":"2013-031B","EPOCH":"2026-02-01T20:00:01.861632","MEAN_MOTION":5.00115035,"ECCENTRICITY":0.00049579,"INCLINATION":0.0572,"RA_OF_ASC_NODE":346.8195,"ARG_OF_PERICENTER":339.7845,"MEAN_ANOMALY":33.3571,"EPHEMERIS_TYPE":0,"CLASSIFICATION_TYPE":"U","NORAD_CAT_ID":39189,"ELEMENT_SET_NO":999,"REV_AT_EPOCH":23027,"BSTAR":0,"MEAN_MOTION_DOT":-2.6e-7,"MEAN_MOTION_DDOT":0},{"OBJECT_NAME":"O3B FM2","OBJECT_ID":"2013-031C","EPOCH":"2026-02-01T21:34:41.534112","MEAN_MOTION":5.00115949,"ECCENTRICITY":0.00028784,"INCLINATION":0.0598,"RA_OF_ASC_NODE":341.1989,"ARG_OF_PERICENTER":330.6647,"MEAN_ANOMALY":48.1042,"EPHEMERIS_TYPE":0,"CLASSIFICATION_TYPE":"U","NORAD_CAT_ID":39190,"ELEMENT_SET_NO":999,"REV_AT_EPOCH":23033,"BSTAR":0,"MEAN_MOTION_DOT":-2.6e-7,"MEAN_MOTION_DDOT":0},{"OBJECT_NAME":"O3B PFM","OBJECT_ID":"2013-031D","EPOCH":"2026-01-31T17:07:57.192960","MEAN_MOTION":5.00115965,"ECCENTRICITY":0.00045473,"INCLINATION":0.0618,"RA_OF_ASC_NODE":11.8457,"ARG_OF_PERICENTER":321.149,"MEAN_ANOMALY":26.9745,"EPHEMERIS_TYPE":0,"CLASSIFICATION_TYPE":"U","NORAD_CAT_ID":39191,"ELEMENT_SET_NO":999,"REV_AT_EPOCH":22984,"BSTAR":0,"MEAN_MOTION_DOT":-2.4e-7,"MEAN_MOTION_DDOT":0},{"OBJECT_NAME":"ASTRA 2E","OBJECT_ID":"2013-056A","EPOCH":"2026-02-01T22:10:53.470272","MEAN_MOTION":1.00270403,"ECCENTRICITY":0.000221,"INCLINATION":0.0573,"RA_OF_ASC_NODE":15.7933,"ARG_OF_PERICENTER":290.1582,"MEAN_ANOMALY":187.3647,"EPHEMERIS_TYPE":0,"CLASSIFICATION_TYPE":"U","NORAD_CAT_ID":39285,"ELEMENT_SET_NO":999,"REV_AT_EPOCH":4506,"BSTAR":0,"MEAN_MOTION_DOT":1.4e-6,"MEAN_MOTION_DDOT":0},{"OBJECT_NAME":"SES-8","OBJECT_ID":"2013-071A","EPOCH":"2026-02-01T22:29:51.652896","MEAN_MOTION":1.00269729,"ECCENTRICITY":0.00013507,"INCLINATION":0.0117,"RA_OF_ASC_NODE":256.5795,"ARG_OF_PERICENTER":87.743,"MEAN_ANOMALY":220.3068,"EPHEMERIS_TYPE":0,"CLASSIFICATION_TYPE":"U","NORAD_CAT_ID":39460,"ELEMENT_SET_NO":999,"REV_AT_EPOCH":4308,"BSTAR":0,"MEAN_MOTION_DOT":0,"MEAN_MOTION_DDOT":0},{"OBJECT_NAME":"ASTRA 5B","OBJECT_ID":"2014-011B","EPOCH":"2026-02-01T21:17:38.584896","MEAN_MOTION":1.00269065,"ECCENTRICITY":0.00048704,"INCLINATION":0.0752,"RA_OF_ASC_NODE":299.5311,"ARG_OF_PERICENTER":5.6912,"MEAN_ANOMALY":169.7438,"EPHEMERIS_TYPE":0,"CLASSIFICATION_TYPE":"U","NORAD_CAT_ID":39617,"ELEMENT_SET_NO":999,"REV_AT_EPOCH":4331,"BSTAR":0,"MEAN_MOTION_DOT":1.27e-6,"MEAN_MOTION_DDOT":0},{"OBJECT_NAME":"O3B FM3","OBJECT_ID":"2014-038A","EPOCH":"2026-02-01T13:55:14.153088","MEAN_MOTION":5.00115527,"ECCENTRICITY":3.095e-5,"INCLINATION":0.0527,"RA_OF_ASC_NODE":354.0726,"ARG_OF_PERICENTER":285.8816,"MEAN_ANOMALY":80.0348,"EPHEMERIS_TYPE":0,"CLASSIFICATION_TYPE":"U","NORAD_CAT_ID":40079,"ELEMENT_SET_NO":999,"REV_AT_EPOCH":20626,"BSTAR":0,"MEAN_MOTION_DOT":-2.5e-7,"MEAN_MOTION_DDOT":0},{"OBJECT_NAME":"O3B FM7","OBJECT_ID":"2014-038B","EPOCH":"2026-01-31T07:50:32.464896","MEAN_MOTION":5.00115552,"ECCENTRICITY":0.00045606,"INCLINATION":0.0595,"RA_OF_ASC_NODE":351.2386,"ARG_OF_PERICENTER":315.8614,"MEAN_ANOMALY":52.8514,"EPHEMERIS_TYPE":0,"CLASSIFICATION_TYPE":"U","NORAD_CAT_ID":40080,"ELEMENT_SET_NO":999,"REV_AT_EPOCH":21103,"BSTAR":0,"MEAN_MOTION_DOT":-2.4e-7,"MEAN_MOTION_DDOT":0},{"OBJECT_NAME":"O3B FM6","OBJECT_ID":"2014-038C","EPOCH":"2026-02-01T18:04:20.401824","MEAN_MOTION":5.00115642,"ECCENTRICITY":0.00027129,"INCLINATION":0.0551,"RA_OF_ASC_NODE":352.3844,"ARG_OF_PERICENTER":318.0134,"MEAN_ANOMALY":49.571,"EPHEMERIS_TYPE":0,"CLASSIFICATION_TYPE":"U","NORAD_CAT_ID":40081,"ELEMENT_SET_NO":999,"REV_AT_EPOCH":21104,"BSTAR":0,"MEAN_MOTION_DOT":-2.5e-7,"MEAN_MOTION_DDOT":0}]
